[{"OBJECT_NAME":"AEROCUBE 6A","OBJECT_ID":"2014-033AM","EPOCH":"2026-03-09T22:20:23.815680","MEAN_MOTION":14.96848607,"ECCENTRICITY":0.00387302,"INCLINATION":97.7128,"RA_OF_ASC_NODE":237.0691,"ARG_OF_PERICENTER":349.0559,"MEAN_ANOMALY":10.9816,"EPHEMERIS_TYPE":0,"CLASSIFICATION_TYPE":"U","NORAD_CAT_ID":40045,"ELEMENT_SET_NO":999,"REV_AT_EPOCH":63176,"BSTAR":0.00067890448,"MEAN_MOTION_DOT":7.845e-5,"MEAN_MOTION_DDOT":0},{"OBJECT_NAME":"STARLINK-6180","OBJECT_ID":"2023-083M","EPOCH":"2026-03-09T01:17:14.528832","MEAN_MOTION":15.02535054,"ECCENTRICITY":0.00013351,"INCLINATION":43.0039,"RA_OF_ASC_NODE":85.3208,"ARG_OF_PERICENTER":256.6188,"MEAN_ANOMALY":103.4506,"EPHEMERIS_TYPE":0,"CLASSIFICATION_TYPE":"U","NORAD_CAT_ID":56887,"ELEMENT_SET_NO":999,"REV_AT_EPOCH":15157,"BSTAR":-5.402648e-6,"MEAN_MOTION_DOT":-2.77e-6,"MEAN_MOTION_DDOT":0}]
